NORAD_CAT_ID,OBJECT_NAME,OBJECT_TYPE,EPOCH,MEAN_MOTION,ECCENTRICITY,INCLINATION,RA_OF_ASC_NODE,ARG_OF_PERICENTER,MEAN_ANOMALY,BSTAR,MEAN_MOTION_DOT,MEAN_MOTION_DDOT,TLE_LINE0,TLE_LINE1,TLE_LINE2,SEMIMAJOR_AXIS,PERIOD,APOGEE,PERIGEE,DECAYED
52607.0,STARLINK-3947,PAYLOAD,2024-01-26 14:18:16,15.08848922,0.0001387,53.2163,154.6837,107.909,252.2054,0.00027905,4.157e-05,0.0,0 STARLINK-3947,1 52607U 22052K   24026.59602554  .00004157  00000-0  27905-3 0  9994,2 52607  53.2163 154.6837 0001387 107.9090 252.2054 15.08848922 94067,6917.853,95.437,540.678,538.759,0.0
52607.0,STARLINK-3947,PAYLOAD,2024-01-26 17:29:02,15.08853957,0.0001331,53.2162,154.086,98.0369,262.0774,0.00036367,5.507e-05,0.0,0 STARLINK-3947,1 52607U 22052K   24026.72850359  .00005507  00000-0  36367-3 0  9999,2 52607  53.2162 154.0860 0001331  98.0369 262.0774 15.08853957 94460,6917.838,95.437,540.623,538.782,0.0
52607.0,STARLINK-3947,PAYLOAD,2024-01-27 12:33:40,15.0884228,0.0001633,53.2158,150.5182,110.5648,249.552,5.8203e-05,6.38e-06,0.0,0 STARLINK-3947,1 52607U 22052K   24027.52338755  .00000638  00000-0  58203-4 0  9993,2 52607  53.2158 150.5182 0001633 110.5648 249.5520 15.08842280 94587,6917.873,95.437,540.868,538.609,0.0
52607.0,STARLINK-3947,PAYLOAD,2024-01-27 14:09:03,15.0884148,0.0001605,53.2162,150.2205,122.1385,237.9763,3.3007e-05,2.37e-06,0.0,0 STARLINK-3947,1 52607U 22052K   24027.58962690  .00000237  00000-0  33007-4 0  9990,2 52607  53.2162 150.2205 0001605 122.1385 237.9763 15.08841480 94212,6917.876,95.437,540.851,538.631,0.0
52607.0,STARLINK-3947,PAYLOAD,2024-01-27 15:44:27,15.08841185,0.0001359,53.2161,149.9262,75.5013,284.613,7.1985e-05,8.58e-06,0.0,0 STARLINK-3947,1 52607U 22052K   24027.65586994  .00000858  00000-0  71985-4 0  9993,2 52607  53.2161 149.9262 0001359  75.5013 284.6130 15.08841185 94224,6917.877,95.437,540.682,538.802,0.0
52607.0,STARLINK-3947,PAYLOAD,2024-01-28 07:38:18,15.08837269,0.0001509,53.2161,146.9536,68.2909,291.8243,2.0223e-05,3.4e-07,0.0,0 STARLINK-3947,1 52607U 22052K   24028.31827386  .00000034  00000-0  20223-4 0  9995,2 52607  53.2161 146.9536 0001509  68.2909 291.8243 15.08837269 94701,6917.889,95.438,540.798,538.71,0.0
52607.0,STARLINK-3947,PAYLOAD,2024-01-28 13:59:51,15.08840593,0.0001597,53.2162,145.765,65.1885,294.9273,0.00012708,1.735e-05,0.0,0 STARLINK-3947,1 52607U 22052K   24028.58323384  .00001735  00000-0  12708-3 0  9990,2 52607  53.2162 145.7650 0001597  65.1885 294.9273 15.08840593 94365,6917.879,95.438,540.848,538.639,0.0
52607.0,STARLINK-3947,PAYLOAD,2024-01-29 12:15:15,15.08848886,0.0001575,53.2161,141.6021,67.5716,292.5443,0.00035507,5.369e-05,0.0,0 STARLINK-3947,1 52607U 22052K   24029.51059185  .00005369  00000-0  35507-3 0  9998,2 52607  53.2161 141.6021 0001575  67.5716 292.5443 15.08848886 94889,6917.853,95.437,540.808,538.629,0.0
52607.0,STARLINK-3947,PAYLOAD,2024-01-30 10:30:39,15.08840463,0.0001549,53.2177,137.4394,88.5993,271.5177,6.5629e-05,7.57e-06,0.0,0 STARLINK-3947,1 52607U 22052K   24030.43795373  .00000757  00000-0  65629-4 0  9992,2 52607  53.2177 137.4394 0001549  88.5993 271.5177 15.08840463 95024,6917.879,95.438,540.816,538.672,0.0
52607.0,STARLINK-3947,PAYLOAD,2024-01-30 13:41:25,15.08839339,0.0001518,53.2174,136.8446,86.9593,273.1573,4.0328e-05,3.54e-06,0.0,0 STARLINK-3947,1 52607U 22052K   24030.57043413  .00000354  00000-0  40328-4 0  9990,2 52607  53.2174 136.8446 0001518  86.9593 273.1573 15.08839339 94663,6917.882,95.438,540.798,538.697,0.0
52607.0,STARLINK-3947,PAYLOAD,2024-01-31 11:56:49,15.08836466,0.0001333,53.2173,132.6772,104.3129,255.8011,-7.2425e-05,-1.44e-05,0.0,0 STARLINK-3947,1 52607U 22052K   24031.49779953 -.00001440  00000-0 -72425-4 0  9999,2 52607  53.2173 132.6772 0001333 104.3129 255.8011 15.08836466 95183,6917.891,95.438,540.678,538.834,0.0
52607.0,STARLINK-3947,PAYLOAD,2024-02-01 11:47:36,15.08836636,0.0001655,53.2162,128.2136,120.9678,239.1477,4.8488e-05,4.84e-06,0.0,0 STARLINK-3947,1 52607U 22052K   24032.49139864  .00000484  00000-0  48488-4 0  9998,2 52607  53.2162 128.2136 0001655 120.9678 239.1477 15.08836636 94950,6917.891,95.438,540.901,538.611,0.0
52607.0,STARLINK-3947,PAYLOAD,2024-02-02 11:38:23,15.08842723,0.0002182,53.2168,123.7602,135.9656,224.151,0.00021194,3.087e-05,0.0,0 STARLINK-3947,1 52607U 22052K   24033.48499260  .00003087  00000-0  21194-3 0  9993,2 52607  53.2168 123.7602 0002182 135.9656 224.1510 15.08842723 95487,6917.872,95.437,541.247,538.228,0.0
52607.0,STARLINK-3947,PAYLOAD,2024-02-03 11:29:11,15.08843222,0.0001566,53.2177,119.3063,99.843,260.2739,3.7328e-05,3.06e-06,0.0,0 STARLINK-3947,1 52607U 22052K   24034.47860077  .00000306  00000-0  37328-4 0  9999,2 52607  53.2177 119.3063 0001566  99.8430 260.2739 15.08843222 95638,6917.871,95.437,540.819,538.652,0.0
52607.0,STARLINK-3947,PAYLOAD,2024-02-03 13:04:34,15.08843125,0.0001628,53.2171,119.0023,66.9352,293.1811,3.0598e-05,1.99e-06,0.0,0 STARLINK-3947,1 52607U 22052K   24034.54484170  .00000199  00000-0  30598-4 0  9995,2 52607  53.2171 119.0023 0001628  66.9352 293.1811 15.08843125 95269,6917.871,95.437,540.862,538.61,0.0
52607.0,STARLINK-3947,PAYLOAD,2024-02-03 14:39:57,15.08844718,0.0001617,53.2173,118.6996,70.8796,289.2371,3.8414e-05,3.23e-06,0.0,0 STARLINK-3947,1 52607U 22052K   24034.61107939  .00000323  00000-0  38414-4 0  9992,2 52607  53.2173 118.6996 0001617  70.8796 289.2371 15.08844718 95276,6917.866,95.437,540.85,538.612,0.0
52607.0,STARLINK-3947,PAYLOAD,2024-02-04 12:55:20,15.08850529,0.0001579,53.2175,114.543,86.3024,273.8148,1.9843e-05,2.8e-07,0.0,0 STARLINK-3947,1 52607U 22052K   24035.53843365  .00000028  00000-0  19843-4 0  9991,2 52607  53.2175 114.5430 0001579  86.3024 273.8148 15.08850529 95413,6917.848,95.437,540.806,538.621,0.0
52607.0,STARLINK-3947,PAYLOAD,2024-02-05 04:49:12,15.08842722,0.0001728,53.2175,111.5732,71.0326,289.0854,6.4903e-05,7.45e-06,0.0,0 STARLINK-3947,1 52607U 22052K   24036.20083868  .00000745  00000-0  64903-4 0  9993,2 52607  53.2175 111.5732 0001728  71.0326 289.0854 15.08842722 95898,6917.872,95.437,540.932,538.542,0.0
52607.0,STARLINK-3947,PAYLOAD,2024-02-05 11:10:44,15.08841796,0.000141,53.2173,110.379,93.0291,267.0863,5.405e-05,5.72e-06,0.0,0 STARLINK-3947,1 52607U 22052K   24036.46579733  .00000572  00000-0  54050-4 0  9992,2 52607  53.2173 110.3790 0001410  93.0291 267.0863 15.08841796 95559,6917.875,95.437,540.715,538.764,0.0
52607.0,STARLINK-3947,PAYLOAD,2024-02-06 11:01:31,15.0884547,0.0001708,53.2177,105.9175,93.7258,266.3929,5.2603e-06,-2.04e-06,0.0,0 STARLINK-3947,1 52607U 22052K   24037.45939715 -.00000204  00000-0  52603-5 0  9998,2 52607  53.2177 105.9175 0001708  93.7258 266.3929 15.08845470 96087,6917.864,95.437,540.91,538.547,0.0
52607.0,STARLINK-3947,PAYLOAD,2024-02-07 14:03:04,15.0884829,0.0001649,53.2164,100.8612,95.8346,264.2834,0.00011905,1.608e-05,0.0,0 STARLINK-3947,1 52607U 22052K   24038.58547170  .00001608  00000-0  11905-3 0  9999,2 52607  53.2164 100.8612 0001649  95.8346 264.2834 15.08848290 95879,6917.855,95.437,540.861,538.579,0.0
52607.0,STARLINK-3947,PAYLOAD,2024-02-08 10:43:06,15.08838812,0.0001451,53.2166,96.9955,91.2459,268.8699,3.4077e-05,2.54e-06,0.0,0 STARLINK-3947,1 52607U 22052K   24039.44660168  .00000254  00000-0  34077-4 0  9990,2 52607  53.2166  96.9955 0001451  91.2459 268.8699 15.08838812 96387,6917.884,95.438,540.753,538.745,0.0
52607.0,STARLINK-3947,PAYLOAD,2024-02-09 10:33:53,15.08843944,0.0001534,53.2168,92.5357,90.7659,269.3508,4.0552e-06,-2.23e-06,0.0,0 STARLINK-3947,1 52607U 22052K   24040.44020134 -.00000223  00000-0  40552-5 0  9998,2 52607  53.2168  92.5357 0001534  90.7659 269.3508 15.08843944 96157,6917.868,95.437,540.795,538.672,0.0
52607.0,STARLINK-3947,PAYLOAD,2024-02-10 02:27:45,15.08834443,0.0001656,53.2178,89.5655,90.7309,269.3872,2.1544e-05,5.5e-07,0.0,0 STARLINK-3947,1 52607U 22052K   24041.10260755  .00000055  00000-0  21544-4 0  9998,2 52607  53.2178  89.5655 0001656  90.7309 269.3872 15.08834443 96633,6917.897,95.438,540.908,538.617,0.0
52607.0,STARLINK-3947,PAYLOAD,2024-02-10 10:24:41,15.08838187,0.0001611,53.2176,88.0746,87.941,272.1767,7.8279e-06,-1.63e-06,0.0,0 STARLINK-3947,1 52607U 22052K   24041.43380969 -.00000163  00000-0  78279-5 0  9993,2 52607  53.2176  88.0746 0001611  87.9410 272.1767 15.08838187 96306,6917.886,95.438,540.865,538.636,0.0
52607.0,STARLINK-3947,PAYLOAD,2024-02-11 11:50:50,15.08847324,0.0001728,53.2181,83.3169,83.5466,276.5723,0.00016371,2.319e-05,0.0,0 STARLINK-3947,1 52607U 22052K   24042.49364276  .00002319  00000-0  16371-3 0  9990,2 52607  53.2181  83.3169 0001728  83.5466 276.5723 15.08847324 96843,6917.858,95.437,540.918,538.528,0.0
52607.0,STARLINK-3947,PAYLOAD,2024-02-12 11:41:37,15.08852841,0.0001582,53.2173,78.853,89.8232,270.2941,0.00016646,2.363e-05,0.0,0 STARLINK-3947,1 52607U 22052K   24043.48723892  .00002363  00000-0  16646-3 0  9997,2 52607  53.2173  78.8530 0001582  89.8232 270.2941 15.08852841 96611,6917.841,95.437,540.801,538.612,0.0
52607.0,STARLINK-3947,PAYLOAD,2024-02-13 11:32:24,15.08852117,0.0001889,53.2186,74.3908,105.3227,254.7974,2.4911e-05,1.08e-06,0.0,0 STARLINK-3947,1 52607U 22052K   24044.48084037  .00000108  00000-0  24911-4 0  9999,2 52607  53.2186  74.3908 0001889 105.3227 254.7974 15.08852117 97141,6917.843,95.437,541.015,538.402,0.0
52607.0,STARLINK-3947,PAYLOAD,2024-02-13 19:29:20,15.08838084,0.0001928,53.2168,72.9014,113.7361,246.3833,-4.4237e-05,-9.92e-06,0.0,0 STARLINK-3947,1 52607U 22052K   24044.81204623 -.00000992  00000-0 -44237-4 0  9997,2 52607  53.2168  72.9014 0001928 113.7361 246.3833 15.08838084 97192,6917.886,95.438,541.085,538.417,0.0
52607.0,STARLINK-3947,PAYLOAD,2024-02-14 08:12:25,15.0884718,0.0001615,53.217,70.5294,86.3426,273.775,-9.6334e-06,-4.41e-06,0.0,0 STARLINK-3947,1 52607U 22052K   24045.34196536 -.00000441  00000-0 -96334-5 0  9994,2 52607  53.2170  70.5294 0001615  86.3426 273.7750 15.08847180 96894,6917.858,95.437,540.841,538.606,0.0
